[{"OBJECT_NAME":"LEMUR-2-ARIANNA","OBJECT_ID":"2025-009CU","EPOCH":"2026-03-09T17:46:47.419968","MEAN_MOTION":15.00881954,"ECCENTRICITY":0.00046401,"INCLINATION":97.6996,"RA_OF_ASC_NODE":151.0445,"ARG_OF_PERICENTER":147.3928,"MEAN_ANOMALY":212.7583,"EPHEMERIS_TYPE":0,"CLASSIFICATION_TYPE":"U","NORAD_CAT_ID":62699,"ELEMENT_SET_NO":999,"REV_AT_EPOCH":6263,"BSTAR":0.00071790312,"MEAN_MOTION_DOT":9.084e-5,"MEAN_MOTION_DDOT":0},{"OBJECT_NAME":"STARLINK-34454","OBJECT_ID":"2025-126P","EPOCH":"2026-03-09T22:22:27.532704","MEAN_MOTION":14.98342465,"ECCENTRICITY":0.00025639,"INCLINATION":70.0032,"RA_OF_ASC_NODE":34.0251,"ARG_OF_PERICENTER":261.2501,"MEAN_ANOMALY":98.8368,"EPHEMERIS_TYPE":0,"CLASSIFICATION_TYPE":"U","NORAD_CAT_ID":64357,"ELEMENT_SET_NO":999,"REV_AT_EPOCH":4071,"BSTAR":0.00052411451,"MEAN_MOTION_DOT":6.168e-5,"MEAN_MOTION_DDOT":0}]
